start=new Date('2022-12-08T00:00:00.000Z').valueOf();
sats=[{"MEAN_ANOMALY":"301.6052","ARG_OF_PERICENTER":"58.5069","OBJECT_TYPE":"PAYLOAD","INCLINATION":"53.0553","TLE_LINE1":"1 48148U 21027BJ  22341.60461698  .00000369  00000-0  43701-4 0  9996","REF_FRAME":"TEME","LAUNCH_DATE":"2021-04-07","CENTER_NAME":"EARTH","RCS_SIZE":"LARGE","SITE":"AFETR","ECCENTRICITY":"0.00013550","CLASSIFICATION_TYPE":"U","OBJECT_ID":"2021-027BJ","MEAN_MOTION_DDOT":"0.0000000000000","EPHEMERIS_TYPE":"0","GP_ID":"219740848","PERIOD":"95.593","MEAN_ELEMENT_THEORY":"SGP4","EPOCH":"2022-12-07T14:30:38.907072","MEAN_MOTION_DOT":"0.00000369","BSTAR":"0.00004370100000","REV_AT_EPOCH":"9333","PERIAPSIS":"546.298","NORAD_CAT_ID":"48148","APOAPSIS":"548.175","MEAN_MOTION":"15.06392487","TIME_SYSTEM":"UTC","COUNTRY_CODE":"US","FILE":"3684212","TLE_LINE2":"2 48148  53.0553 105.1326 0001355  58.5069 301.6052 15.06392487 93333","ELEMENT_SET_NO":"999","RA_OF_ASC_NODE":"105.1326","OBJECT_NAME":"STARLINK-2491","DECAY_DATE":null,"SEMIMAJOR_AXIS":"6925.372"},{"MEAN_MOTION":"15.06393037","APOAPSIS":"548.340","NORAD_CAT_ID":"48149","COUNTRY_CODE":"US","TIME_SYSTEM":"UTC","RA_OF_ASC_NODE":"85.3848","ELEMENT_SET_NO":"999","TLE_LINE2":"2 48149  53.0557  85.3848 0001596  52.8637 307.2498 15.06393037 93610","FILE":"3684212","SEMIMAJOR_AXIS":"6925.370","OBJECT_NAME":"STARLINK-2492","DECAY_DATE":null,"GP_ID":"219741097","EPHEMERIS_TYPE":"0","PERIOD":"95.593","MEAN_MOTION_DOT":"-0.00000909","EPOCH":"2022-12-07T13:13:40.813248","MEAN_ELEMENT_THEORY":"SGP4","PERIAPSIS":"546.130","REV_AT_EPOCH":"9361","BSTAR":"-0.00004214500000","TLE_LINE1":"1 48149U 21027BK  22341.55116682 -.00000909  00000-0 -42145-4 0  9994","CENTER_NAME":"EARTH","LAUNCH_DATE":"2021-04-07","REF_FRAME":"TEME","SITE":"AFETR","RCS_SIZE":"LARGE","OBJECT_ID":"2021-027BK","MEAN_MOTION_DDOT":"0.0000000000000","CLASSIFICATION_TYPE":"U","ECCENTRICITY":"0.00015960","OBJECT_TYPE":"PAYLOAD","ARG_OF_PERICENTER":"52.8637","MEAN_ANOMALY":"307.2498","INCLINATION":"53.0557"},{"EPHEMERIS_TYPE":"0","GP_ID":"219739847","PERIOD":"95.592","EPOCH":"2022-12-07T19:41:08.698848","MEAN_MOTION_DOT":"0.00002805","MEAN_ELEMENT_THEORY":"SGP4","REV_AT_EPOCH":"9366","PERIAPSIS":"545.999","BSTAR":"0.00020708000000","MEAN_MOTION":"15.06406416","NORAD_CAT_ID":"48150","APOAPSIS":"548.389","TIME_SYSTEM":"UTC","COUNTRY_CODE":"US","TLE_LINE2":"2 48150  53.0543  84.1640 0001726  58.0360 302.0796 15.06406416 93665","RA_OF_ASC_NODE":"84.1640","ELEMENT_SET_NO":"999","FILE":"3684212","SEMIMAJOR_AXIS":"6925.329","DECAY_DATE":null,"OBJECT_NAME":"STARLINK-2493","OBJECT_TYPE":"PAYLOAD","MEAN_ANOMALY":"302.0796","ARG_OF_PERICENTER":"58.0360","INCLINATION":"53.0543","TLE_LINE1":"1 48150U 21027BL  22341.82023957  .00002805  00000-0  20708-3 0  9993","LAUNCH_DATE":"2021-04-07","CENTER_NAME":"EARTH","REF_FRAME":"TEME","SITE":"AFETR","RCS_SIZE":"LARGE","MEAN_MOTION_DDOT":"0.0000000000000","OBJECT_ID":"2021-027BL","ECCENTRICITY":"0.00017260","CLASSIFICATION_TYPE":"U"},{"REF_FRAME":"TEME","CENTER_NAME":"EARTH","LAUNCH_DATE":"2021-04-07","TLE_LINE1":"1 48151U 21027BM  22341.62488920  .00000389  00000-0  45038-4 0  9996","CLASSIFICATION_TYPE":"U","ECCENTRICITY":"0.00018290","MEAN_MOTION_DDOT":"0.0000000000000","OBJECT_ID":"2021-027BM","RCS_SIZE":"MEDIUM","SITE":"AFETR","ARG_OF_PERICENTER":"50.2832","MEAN_ANOMALY":"309.8318","OBJECT_TYPE":"PAYLOAD","INCLINATION":"53.0564","COUNTRY_CODE":"US","TIME_SYSTEM":"UTC","APOAPSIS":"548.504","NORAD_CAT_ID":"48151","MEAN_MOTION":"15.06392186","DECAY_DATE":null,"OBJECT_NAME":"STARLINK-2503","SEMIMAJOR_AXIS":"6925.373","FILE":"3684212","ELEMENT_SET_NO":"999","RA_OF_ASC_NODE":"85.0571","TLE_LINE2":"2 48151  53.0564  85.0571 0001829  50.2832 309.8318 15.06392186 93634","PERIOD":"95.593","GP_ID":"219740097","EPHEMERIS_TYPE":"0","BSTAR":"0.00004503800000","PERIAPSIS":"545.971","REV_AT_EPOCH":"9363","MEAN_ELEMENT_THEORY":"SGP4","MEAN_MOTION_DOT":"0.00000389","EPOCH":"2022-12-07T14:59:50.426880"},{"TLE_LINE1":"1 48276U 21036A   22341.73223926 -.00000854  00000-0 -38463-4 0  9992","LAUNCH_DATE":"2021-04-29","CENTER_NAME":"EARTH","REF_FRAME":"TEME","SITE":"AFETR","RCS_SIZE":"LARGE","MEAN_MOTION_DDOT":"0.0000000000000","OBJECT_ID":"2021-036A","ECCENTRICITY":"0.00019090","CLASSIFICATION_TYPE":"U","OBJECT_TYPE":"PAYLOAD","MEAN_ANOMALY":"309.6786","ARG_OF_PERICENTER":"50.4371","INCLINATION":"53.0562","MEAN_MOTION":"15.06395822","NORAD_CAT_ID":"48276","APOAPSIS":"548.548","TIME_SYSTEM":"UTC","COUNTRY_CODE":"US","TLE_LINE2":"2 48276  53.0562 339.5813 0001909  50.4371 309.6786 15.06395822 89750","RA_OF_ASC_NODE":"339.5813","ELEMENT_SET_NO":"999","FILE":"3684212","SEMIMAJOR_AXIS":"6925.361","DECAY_DATE":null,"OBJECT_NAME":"STARLINK-2567","EPHEMERIS_TYPE":"0","GP_ID":"219739609","PERIOD":"95.592","EPOCH":"2022-12-07T17:34:25.472064","MEAN_MOTION_DOT":"-0.00000854","MEAN_ELEMENT_THEORY":"SGP4","REV_AT_EPOCH":"8975","PERIAPSIS":"545.904","BSTAR":"-0.00003846300000"},{"COUNTRY_CODE":"US","TIME_SYSTEM":"UTC","APOAPSIS":"548.286","NORAD_CAT_ID":"48277","MEAN_MOTION":"15.06391523","OBJECT_NAME":"STARLINK-2569","DECAY_DATE":null,"SEMIMAJOR_AXIS":"6925.375","FILE":"3684212","ELEMENT_SET_NO":"999","RA_OF_ASC_NODE":"305.1690","TLE_LINE2":"2 48277  53.0561 305.1690 0001511  69.8454 290.2698 15.06391523 90222","PERIOD":"95.593","GP_ID":"219740861","EPHEMERIS_TYPE":"0","BSTAR":"-0.00000434900000","PERIAPSIS":"546.193","REV_AT_EPOCH":"9022","MEAN_ELEMENT_THEORY":"SGP4","MEAN_MOTION_DOT":"-0.00000346","EPOCH":"2022-12-07T14:25:20.521344","REF_FRAME":"TEME","CENTER_NAME":"EARTH","LAUNCH_DATE":"2021-04-29","TLE_LINE1":"1 48277U 21036B   22341.60093196 -.00000346  00000-0 -43490-5 0  9996","CLASSIFICATION_TYPE":"U","ECCENTRICITY":"0.00015110","OBJECT_ID":"2021-036B","MEAN_MOTION_DDOT":"0.0000000000000","RCS_SIZE":"LARGE","SITE":"AFETR","ARG_OF_PERICENTER":"69.8454","MEAN_ANOMALY":"290.2698","OBJECT_TYPE":"PAYLOAD","INCLINATION":"53.0561"},{"TLE_LINE1":"1 48278U 21036C   22341.63826016 -.00002084  00000-0 -12105-3 0  9993","REF_FRAME":"TEME","CENTER_NAME":"EARTH","LAUNCH_DATE":"2021-04-29","RCS_SIZE":"LARGE","SITE":"AFETR","CLASSIFICATION_TYPE":"U","ECCENTRICITY":"0.00014710","OBJECT_ID":"2021-036C","MEAN_MOTION_DDOT":"0.0000000000000","ARG_OF_PERICENTER":"69.5723","MEAN_ANOMALY":"290.5424","OBJECT_TYPE":"PAYLOAD","INCLINATION":"53.0576","APOAPSIS":"548.248","NORAD_CAT_ID":"48278","MEAN_MOTION":"15.06394868","COUNTRY_CODE":"US","TIME_SYSTEM":"UTC","FILE":"3684212","RA_OF_ASC_NODE":"320.0663","ELEMENT_SET_NO":"999","TLE_LINE2":"2 48278  53.0576 320.0663 0001471  69.5723 290.5424 15.06394868 90018","DECAY_DATE":null,"OBJECT_NAME":"STARLINK-2543","SEMIMAJOR_AXIS":"6925.364","GP_ID":"219741110","EPHEMERIS_TYPE":"0","PERIOD":"95.592","MEAN_ELEMENT_THEORY":"SGP4","MEAN_MOTION_DOT":"-0.00002084","EPOCH":"2022-12-07T15:19:05.677824","BSTAR":"-0.00012105000000","PERIAPSIS":"546.211","REV_AT_EPOCH":"9001"},{"OBJECT_TYPE":"PAYLOAD","ARG_OF_PERICENTER":"50.7561","MEAN_ANOMALY":"309.3584","INCLINATION":"53.0549","CENTER_NAME":"EARTH","LAUNCH_DATE":"2021-04-29","REF_FRAME":"TEME","TLE_LINE1":"1 48279U 21036D   22341.36549023 -.00001242  00000-0 -64493-4 0  9997","OBJECT_ID":"2021-036D","MEAN_MOTION_DDOT":"0.0000000000000","CLASSIFICATION_TYPE":"U","ECCENTRICITY":"0.00017640","SITE":"AFETR","RCS_SIZE":"LARGE","PERIOD":"95.593","GP_ID":"219739860","EPHEMERIS_TYPE":"0","PERIAPSIS":"546.019","REV_AT_EPOCH":"8997","BSTAR":"-0.00006449300000","MEAN_MOTION_DOT":"-0.00001242","EPOCH":"2022-12-07T08:46:18.355872","MEAN_ELEMENT_THEORY":"SGP4","COUNTRY_CODE":"US","TIME_SYSTEM":"UTC","MEAN_MOTION":"15.06391247","APOAPSIS":"548.462","NORAD_CAT_ID":"48279","SEMIMAJOR_AXIS":"6925.375","DECAY_DATE":null,"OBJECT_NAME":"STARLINK-2580","ELEMENT_SET_NO":"999","RA_OF_ASC_NODE":"321.2127","TLE_LINE2":"2 48279  53.0549 321.2127 0001764  50.7561 309.3584 15.06391247 89971","FILE":"3684212"},{"RCS_SIZE":"LARGE","SITE":"AFETR","CLASSIFICATION_TYPE":"U","ECCENTRICITY":"0.00014250","MEAN_MOTION_DDOT":"0.0000000000000","OBJECT_ID":"2021-036E","TLE_LINE1":"1 48280U 21036E   22341.62442251  .00001997  00000-0  15288-3 0  9995","REF_FRAME":"TEME","CENTER_NAME":"EARTH","LAUNCH_DATE":"2021-04-29","INCLINATION":"53.0551","ARG_OF_PERICENTER":"59.1432","MEAN_ANOMALY":"300.9697","OBJECT_TYPE":"PAYLOAD","FILE":"3684212","ELEMENT_SET_NO":"999","RA_OF_ASC_NODE":"30.0574","TLE_LINE2":"2 48280  53.0551  30.0574 0001425  59.1432 300.9697 15.06403787 89033","OBJECT_NAME":"STARLINK-2565","DECAY_DATE":null,"SEMIMAJOR_AXIS":"6925.337","APOAPSIS":"548.189","NORAD_CAT_ID":"48280","MEAN_MOTION":"15.06403787","COUNTRY_CODE":"US","TIME_SYSTEM":"UTC","MEAN_ELEMENT_THEORY":"SGP4","MEAN_MOTION_DOT":"0.00001997","EPOCH":"2022-12-07T14:59:10.104864","BSTAR":"0.00015288000000","PERIAPSIS":"546.215","REV_AT_EPOCH":"8903","GP_ID":"219740110","EPHEMERIS_TYPE":"0","PERIOD":"95.592"},{"REF_FRAME":"TEME","LAUNCH_DATE":"2021-04-29","CENTER_NAME":"EARTH","TLE_LINE1":"1 48281U 21036F   22341.37194003 -.00000783  00000-0 -33663-4 0  9999","ECCENTRICITY":"0.00016450","CLASSIFICATION_TYPE":"U","MEAN_MOTION_DDOT":"0.0000000000000","OBJECT_ID":"2021-036F","RCS_SIZE":"LARGE","SITE":"AFETR","MEAN_ANOMALY":"302.9309","ARG_OF_PERICENTER":"57.1838","OBJECT_TYPE":"PAYLOAD","INCLINATION":"53.0558","TIME_SYSTEM":"UTC","COUNTRY_CODE":"US","NORAD_CAT_ID":"48281","APOAPSIS":"548.368","MEAN_MOTION":"15.06395175","DECAY_DATE":null,"OBJECT_NAME":"STARLINK-2520","SEMIMAJOR_AXIS":"6925.363","FILE":"3684212","TLE_LINE2":"2 48281  53.0558  11.1854 0001645  57.1838 302.9309 15.06395175 89273","RA_OF_ASC_NODE":"11.1854","ELEMENT_SET_NO":"999","PERIOD":"95.592","EPHEMERIS_TYPE":"0","GP_ID":"219740361","BSTAR":"-0.00003366300000","REV_AT_EPOCH":"8927","PERIAPSIS":"546.089","MEAN_ELEMENT_THEORY":"SGP4","EPOCH":"2022-12-07T08:55:35.618592","MEAN_MOTION_DOT":"-0.00000783"}];
